[Satellite]
VERSION=1.1
NAME=GCOM-W1 (SHIZUKU)
NICKNAME=GCOM-W1 (SHIZUKU)
TLE1=1 38337U 12025A   15054.79235637  .00000529  00000-0  12750-3 0  9995
TLE2=2 38337  98.2258 356.3317 0001439  51.6203 308.5126 14.57133791147404
